STRIX-1                 
1 53815U 22113A   26189.49318166  .00015678  00000+0  38458-3 0  9992
2 53815  97.4482 251.9091 0005183 149.6509 210.5038 15.40783013210729
STRIX-3                 
1 59224U 24047A   26189.51402896  .00005298  00000+0  25070-3 0  9990
2 59224  97.6630 165.5092 0012804 358.9309   1.1896 15.19736545127983
STRIX-4                 
1 60352U 24137A   26189.39672019  .00009474  00000+0  29669-3 0  9994
2 60352  43.0141 164.2842 0015789  83.6651 276.6001 15.33166459107279
STRIX-2                 
1 62406U 24248A   26189.55752630  .00004436  00000+0  28301-3 0  9990
2 62406  97.6292 145.0771 0013612 261.6170  98.3515 15.09146459 84812
STRIX-5                 
1 65971U 25229A   26189.01459828  .00001860  00000+0  14219-3 0  9995
2 65971  41.9264 171.8928 0037031 191.3593 168.6400 15.04557833 40119
STRIX-6                 
1 68291U 26056A   26189.44220028  .00001594  00000+0  14643-3 0  9992
2 68291  50.2820 249.3120 0016558 325.3377  34.6492 15.00308954 16461
STRIX-7                 
1 69177U 26112A   26189.52898668  .00002864  00000+0  23404-3 0  9995
2 69177  44.9076  80.3473 0023919 170.8523 189.2788 15.01576514  7080
STRIX-8                 
1 69701U 26146A   26189.51343334  .00003085  00000+0  23052-3 0  9994
2 69701  41.9899  50.1061 0008264 338.6980  21.3502 15.04397194  1776
