{"fetched_at":"2026-07-08T18:00:52.546Z","source":"https://celestrak.org/NORAD/elements/gp.php?NAME=STRIX&FORMAT=JSON","constellation":"synspective","records":[{"OBJECT_NAME":"STRIX-1","OBJECT_ID":"2022-113A","EPOCH":"2026-07-08T11:50:10.895424","CLASSIFICATION_TYPE":"U","MEAN_MOTION":15.40783013,"ECCENTRICITY":0.0005183,"INCLINATION":97.4482,"RA_OF_ASC_NODE":251.9091,"ARG_OF_PERICENTER":149.6509,"MEAN_ANOMALY":210.5038,"EPHEMERIS_TYPE":0,"NORAD_CAT_ID":53815,"ELEMENT_SET_NO":999,"REV_AT_EPOCH":21072,"BSTAR":0.00038458,"MEAN_MOTION_DOT":0.00015678,"MEAN_MOTION_DDOT":0},{"OBJECT_NAME":"STRIX-3","OBJECT_ID":"2024-047A","EPOCH":"2026-07-08T12:20:12.102144","CLASSIFICATION_TYPE":"U","MEAN_MOTION":15.19736545,"ECCENTRICITY":0.0012804,"INCLINATION":97.663,"RA_OF_ASC_NODE":165.5092,"ARG_OF_PERICENTER":358.9309,"MEAN_ANOMALY":1.1896,"EPHEMERIS_TYPE":0,"NORAD_CAT_ID":59224,"ELEMENT_SET_NO":999,"REV_AT_EPOCH":12798,"BSTAR":0.0002507,"MEAN_MOTION_DOT":0.00005298,"MEAN_MOTION_DDOT":0},{"OBJECT_NAME":"STRIX-4","OBJECT_ID":"2024-137A","EPOCH":"2026-07-08T09:31:16.624416","CLASSIFICATION_TYPE":"U","MEAN_MOTION":15.33166459,"ECCENTRICITY":0.0015789,"INCLINATION":43.0141,"RA_OF_ASC_NODE":164.2842,"ARG_OF_PERICENTER":83.6651,"MEAN_ANOMALY":276.6001,"EPHEMERIS_TYPE":0,"NORAD_CAT_ID":60352,"ELEMENT_SET_NO":999,"REV_AT_EPOCH":10727,"BSTAR":0.00029669,"MEAN_MOTION_DOT":0.00009474,"MEAN_MOTION_DDOT":0},{"OBJECT_NAME":"STRIX-2","OBJECT_ID":"2024-248A","EPOCH":"2026-07-08T13:22:50.272320","CLASSIFICATION_TYPE":"U","MEAN_MOTION":15.09146459,"ECCENTRICITY":0.0013612,"INCLINATION":97.6292,"RA_OF_ASC_NODE":145.0771,"ARG_OF_PERICENTER":261.617,"MEAN_ANOMALY":98.3515,"EPHEMERIS_TYPE":0,"NORAD_CAT_ID":62406,"ELEMENT_SET_NO":999,"REV_AT_EPOCH":8481,"BSTAR":0.00028301,"MEAN_MOTION_DOT":0.00004436,"MEAN_MOTION_DDOT":0},{"OBJECT_NAME":"STRIX-5","OBJECT_ID":"2025-229A","EPOCH":"2026-07-08T00:21:01.291392","CLASSIFICATION_TYPE":"U","MEAN_MOTION":15.04557833,"ECCENTRICITY":0.0037031,"INCLINATION":41.9264,"RA_OF_ASC_NODE":171.8928,"ARG_OF_PERICENTER":191.3593,"MEAN_ANOMALY":168.64,"EPHEMERIS_TYPE":0,"NORAD_CAT_ID":65971,"ELEMENT_SET_NO":999,"REV_AT_EPOCH":4011,"BSTAR":0.00014219,"MEAN_MOTION_DOT":0.0000186,"MEAN_MOTION_DDOT":0},{"OBJECT_NAME":"STRIX-6","OBJECT_ID":"2026-056A","EPOCH":"2026-07-08T10:36:46.104192","CLASSIFICATION_TYPE":"U","MEAN_MOTION":15.00308954,"ECCENTRICITY":0.0016558,"INCLINATION":50.282,"RA_OF_ASC_NODE":249.312,"ARG_OF_PERICENTER":325.3377,"MEAN_ANOMALY":34.6492,"EPHEMERIS_TYPE":0,"NORAD_CAT_ID":68291,"ELEMENT_SET_NO":999,"REV_AT_EPOCH":1646,"BSTAR":0.00014643,"MEAN_MOTION_DOT":0.00001594,"MEAN_MOTION_DDOT":0},{"OBJECT_NAME":"STRIX-7","OBJECT_ID":"2026-112A","EPOCH":"2026-07-08T12:41:44.449152","CLASSIFICATION_TYPE":"U","MEAN_MOTION":15.01576514,"ECCENTRICITY":0.0023919,"INCLINATION":44.9076,"RA_OF_ASC_NODE":80.3473,"ARG_OF_PERICENTER":170.8523,"MEAN_ANOMALY":189.2788,"EPHEMERIS_TYPE":0,"NORAD_CAT_ID":69177,"ELEMENT_SET_NO":999,"REV_AT_EPOCH":708,"BSTAR":0.00023404,"MEAN_MOTION_DOT":0.00002864,"MEAN_MOTION_DDOT":0},{"OBJECT_NAME":"STRIX-8","OBJECT_ID":"2026-146A","EPOCH":"2026-07-08T12:19:20.640576","CLASSIFICATION_TYPE":"U","MEAN_MOTION":15.04397194,"ECCENTRICITY":0.0008264,"INCLINATION":41.9899,"RA_OF_ASC_NODE":50.1061,"ARG_OF_PERICENTER":338.698,"MEAN_ANOMALY":21.3502,"EPHEMERIS_TYPE":0,"NORAD_CAT_ID":69701,"ELEMENT_SET_NO":999,"REV_AT_EPOCH":177,"BSTAR":0.00023052,"MEAN_MOTION_DOT":0.00003085,"MEAN_MOTION_DDOT":0}]}
